GLOBALSTAR M035         
1 25851U 99037A   24161.74622806 -.00000062  00000+0  78718-4 0  9991
2 25851  51.9909 165.5367 0013035  98.7090  71.8655 11.04530890 55108
GLOBALSTAR M032         
1 25852U 99037B   24161.85207950  .00000013  00000+0  25609-2 0  9997
2 25852  51.9981  16.1893 0009260 259.8241 100.1515 11.19054686 93100
GLOBALSTAR M051         
1 25853U 99037C   24161.86226903 -.00000030  00000+0  10406-2 0  9997
2 25853  51.9773 219.0747 0001507 255.6930 104.3713 11.42198991 89865
GLOBALSTAR M030         
1 25854U 99037D   24161.98355898 -.00000038  00000+0  78021-3 0  9993
2 25854  51.9899  48.5536 0004273  95.9264 264.2040 11.55095536107038
GLOBALSTAR M048         
1 25872U 99041A   24161.90477264 -.00000087  00000+0 -46514-3 0  9999
2 25872  51.9333 139.6087 0013700 261.8451 117.7013 11.33846814 82753
GLOBALSTAR M026         
1 25873U 99041B   24161.60370041 -.00000084  00000+0 -74200-3 0  9992
2 25873  52.0025 287.7359 0001002   8.4803   3.9149 11.06834111107233
GLOBALSTAR M043         
1 25874U 99041C   24161.96700363 -.00000094  00000+0 -75818-3 0  9993
2 25874  51.9386 232.2726 0012009  37.6819 133.2155 11.25679461 80954
GLOBALSTAR M028         
1 25875U 99041D   24161.86271009 -.00000022  00000+0  50900-3 0  9998
2 25875  51.9612 223.2500 0063048 342.9713  16.9033 12.50557568143595
